SENTINEL-3A             
1 41335U 16011A   26192.83214870  .00000038  00000+0  33749-4 0  9998
2 41335  98.6238 259.8605 0001383  91.0903 269.0436 14.26739162541579
SENTINEL-3B             
1 43437U 18039A   26192.17410468  .00000038  00000+0  33847-4 0  9992
2 43437  98.6238 259.3610 0001054 120.7417 239.3868 14.26741288427541
