{"fetched_at":"2026-07-12T05:53:13.988Z","source":"https://celestrak.org/NORAD/elements/gp.php?NAME=SENTINEL&FORMAT=JSON","constellation":"sentinel-3","records":[{"OBJECT_NAME":"SENTINEL-3A","OBJECT_ID":"2016-011A","EPOCH":"2026-07-11T19:58:17.647680","CLASSIFICATION_TYPE":"U","MEAN_MOTION":14.26739162,"ECCENTRICITY":0.0001383,"INCLINATION":98.6238,"RA_OF_ASC_NODE":259.8605,"ARG_OF_PERICENTER":91.0903,"MEAN_ANOMALY":269.0436,"EPHEMERIS_TYPE":0,"NORAD_CAT_ID":41335,"ELEMENT_SET_NO":999,"REV_AT_EPOCH":54157,"BSTAR":0.000033749,"MEAN_MOTION_DOT":3.8e-7,"MEAN_MOTION_DDOT":0},{"OBJECT_NAME":"SENTINEL-3B","OBJECT_ID":"2018-039A","EPOCH":"2026-07-11T04:10:42.644352","CLASSIFICATION_TYPE":"U","MEAN_MOTION":14.26741288,"ECCENTRICITY":0.00010549,"INCLINATION":98.6238,"RA_OF_ASC_NODE":259.361,"ARG_OF_PERICENTER":120.7417,"MEAN_ANOMALY":239.3868,"EPHEMERIS_TYPE":0,"NORAD_CAT_ID":43437,"ELEMENT_SET_NO":999,"REV_AT_EPOCH":42754,"BSTAR":0.00003384739,"MEAN_MOTION_DOT":3.8e-7,"MEAN_MOTION_DDOT":0}]}
